EARTHCARE               
1 59908U 24101A   24197.61101592  .00018252  00000+0  27403-3 0  9993
2 59908  96.9820 324.6884 0003594  23.4732 336.6686 15.54935166  7408
